OBJECT_NAME,OBJECT_ID,EPOCH,MEAN_MOTION,ECCENTRICITY,INCLINATION,RA_OF_ASC_NODE,ARG_OF_PERICENTER,MEAN_ANOMALY,EPHEMERIS_TYPE,CLASSIFICATION_TYPE,NORAD_CAT_ID,ELEMENT_SET_NO,REV_AT_EPOCH,BSTAR,MEAN_MOTION_DOT,MEAN_MOTION_DDOT
SL-16 R/B,1994-077B,2026-07-08T22:56:20.931648,14.15576146,.00040502,70.9830,97.3665,308.2299,51.8459,0,U,23405,999,63339,-.12160154E-3,-.286E-5,0
ARIANE 40+ R/B,1995-021B,2026-07-09T03:31:35.143392,14.39845419,.00077162,98.4402,259.9038,131.9982,258.0810,0,U,23561,999,63672,.60945585E-4,.148E-5,0
SL-16 R/B,1995-058B,2026-07-09T06:01:51.223584,14.15508295,.00146169,71.0217,285.0345,290.5843,69.3711,0,U,23705,999,58505,-.63431247E-4,-.172E-5,0
SL-16 R/B,1996-051B,2026-07-09T06:26:52.198080,14.12454199,.00173296,70.7651,277.9186,305.8479,54.1031,0,U,24298,999,53881,.97896297E-4,.132E-5,0
ORBVIEW 2 (SEASTAR),1997-037A,2026-07-08T16:42:44.405856,14.35564724,.00032442,98.8708,357.3136,73.8405,286.3136,0,U,24883,999,52583,.77100455E-4,.175E-5,0
SL-16 R/B,1998-043G,2026-07-08T21:39:58.840704,14.26072082,.00103696,98.8376,144.2501,28.8793,331.2959,0,U,25400,999,45626,.25363821E-4,.15E-6,0
SL-16 R/B,1998-045B,2026-07-09T04:51:43.077024,14.16207407,.00084782,71.0122,286.0308,214.9339,145.1229,0,U,25407,999,44430,-.71870815E-4,-.19E-5,0
ISS (ZARYA),1998-067A,2026-07-09T02:54:39.810240,15.48953098,.00066703,51.6303,191.5347,273.7232,86.2993,0,U,25544,999,57515,.10961171E-3,.5585E-4,0
CZ-4B R/B,1999-025C,2026-07-09T01:43:41.314080,14.18287007,.00369856,98.6473,231.3586,357.5197,31.3708,0,U,25732,999,40537,.28425502E-4,.16E-6,0
OKEAN-O,1999-039A,2026-07-09T02:39:06.926112,14.80492874,.00010134,97.9304,248.6555,76.9524,283.1801,0,U,25860,999,45235,.53810301E-4,.36E-5,0
SL-16 R/B,1999-039B,2026-07-09T04:18:24.268320,14.81867008,.00138812,97.9826,248.9786,218.8084,141.2133,0,U,25861,999,45485,.46184657E-4,.312E-5,0
DELTA 2 R/B,1999-041E,2026-07-08T16:37:51.987648,14.12066017,.05012359,51.7612,177.8781,345.5594,13.1446,0,U,25876,999,38012,.23115653E-3,.12E-4,0
HELIOS 1B,1999-064A,2026-07-09T04:00:55.899360,14.88065492,.00021884,98.1594,95.9417,61.3924,298.7512,0,U,25977,999,70332,.11657787E-3,.1013E-4,0
TERRA,1999-068A,2026-07-09T06:38:05.158176,14.61120751,.0003146,97.9444,238.9456,134.5499,298.5628,0,U,25994,999,41283,.62002995E-4,.261E-5,0
SL-16 R/B,2000-006B,2026-07-09T00:54:01.410048,14.15839868,.00169415,71.0003,202.6810,348.6607,11.4131,0,U,26070,999,36573,-.96495835E-4,-.238E-5,0
TITAN 4B R/B,2000-047B,2026-07-09T05:54:58.628160,15.10315019,.00459749,67.9873,58.4759,264.6565,94.9338,0,U,26474,999,41126,.11839322E-3,.1851E-4,0
ENVISAT,2002-009A,2026-07-09T07:28:46.491744,14.39069929,.00013612,98.3844,141.1379,84.3195,88.5345,0,U,27386,999,27666,.2819668E-4,.44E-6,0
IDEFIX & ARIANE 42P R/B,2002-021B,2026-07-09T07:02:16.488960,14.31092144,.00115227,98.5942,127.5372,183.7165,176.3934,0,U,27422,999,26141,.65339935E-4,.128E-5,0
AQUA,2002-022A,2026-07-09T07:16:31.694304,14.62191716,.00007718,98.4290,160.0298,102.6219,4.1556,0,U,27424,999,28650,.11798558E-3,.545E-5,0
CZ-4B R/B,2002-024C,2026-07-08T18:04:54.670656,14.14567672,.00507918,98.8689,242.4323,40.1182,73.8783,0,U,27432,999,24635,.24386166E-4,.3E-7,0
MIDORI II (ADEOS-II),2002-056A,2026-07-08T21:48:11.967840,14.29360979,.00017313,98.7890,149.3543,48.4654,311.6675,0,U,27597,999,22761,.78853091E-4,.155E-5,0
H-2A R/B,2002-056E,2026-07-08T22:12:27.678240,14.33831655,.00705026,98.3324,145.8088,159.4596,268.9584,0,U,27601,999,23148,.67520945E-4,.152E-5,0
CZ-4B R/B,2003-049C,2026-07-08T23:03:10.770048,14.55113374,.004729,98.6905,189.6747,220.5516,139.2154,0,U,28059,999,20423,.50289921E-4,.168E-5,0
CZ-2C R/B,2004-012C,2026-07-08T19:16:42.700800,15.83823781,.00111271,97.7050,268.0571,210.2414,149.8213,0,U,28222,999,22331,.44522244E-3,.99446E-3,0
SL-16 R/B,2004-021B,2026-07-08T20:52:36.936480,14.14614688,.0006476,71.0022,338.1826,230.4599,129.5952,0,U,28353,999,13997,.14369025E-3,.229E-5,0
CZ-4B R/B,2004-035C,2026-07-09T00:44:42.309600,15.30934909,.00289058,97.3363,222.8610,255.7029,104.1002,0,U,28415,999,19846,.16241237E-3,.4837E-4,0
CZ-2C R/B,2004-046B,2026-07-09T04:59:55.074912,14.27031973,.0139791,98.1926,97.6108,155.0214,205.7818,0,U,28480,999,12583,.36568562E-4,.58E-6,0
ARIANE 5 R/B,2004-049H,2026-07-08T18:03:43.688736,14.85474250,.00829591,98.2737,2.8409,319.4310,40.0739,0,U,28499,999,16376,.49395982E-4,.387E-5,0
CZ-2D R/B,2005-024B,2026-07-08T14:59:09.665088,15.72109039,.00012609,97.3477,210.1597,219.5546,140.5626,0,U,28738,999,15870,.38743077E-3,.50849E-3,0
ALOS (DAICHI),2006-002A,2026-07-08T20:54:34.552800,14.70093988,.00007828,98.1334,145.3726,81.1093,279.0202,0,U,28931,999,9128,.1291939E-3,.727E-5,0
