SL-16 R/B               
1 23405U 94077B   26189.95579782 -.00000286  00000+0 -12160-3 0  9999
2 23405  70.9830  97.3665 0004050 308.2299  51.8459 14.15576146633397
ARIANE 40+ R/B          
1 23561U 95021B   26190.14693453  .00000148  00000+0  60946-4 0  9998
2 23561  98.4402 259.9038 0007716 131.9982 258.0810 14.39845419636722
SL-16 R/B               
1 23705U 95058B   26190.25128731 -.00000172  00000+0 -63431-4 0  9993
2 23705  71.0217 285.0345 0014616 290.5843  69.3711 14.15508295585053
SL-16 R/B               
1 24298U 96051B   26190.26865970  .00000132  00000+0  97896-4 0  9995
2 24298  70.7651 277.9186 0017329 305.8479  54.1031 14.12454199538810
ORBVIEW 2 (SEASTAR)     
1 24883U 97037A   26189.69634729  .00000175  00000+0  77100-4 0  9994
2 24883  98.8708 357.3136 0003244  73.8405 286.3136 14.35564724525838
SL-16 R/B               
1 25400U 98043G   26189.90276436  .00000015  00000+0  25364-4 0  9997
2 25400  98.8376 144.2501 0010369  28.8793 331.2959 14.26072082456264
SL-16 R/B               
1 25407U 98045B   26190.20258191 -.00000190  00000+0 -71871-4 0  9999
2 25407  71.0122 286.0308 0008478 214.9339 145.1229 14.16207407444309
ISS (ZARYA)             
1 25544U 98067A   26190.12129410  .00005585  00000+0  10961-3 0  9990
2 25544  51.6303 191.5347 0006670 273.7232  86.2993 15.48953098575157
CZ-4B R/B               
1 25732U 99025C   26190.07200595  .00000016  00000+0  28426-4 0  9992
2 25732  98.6473 231.3586 0036985 357.5197  31.3708 14.18287007405373
OKEAN-O                 
1 25860U 99039A   26190.11049683  .00000360  00000+0  53810-4 0  9990
2 25860  97.9304 248.6555 0001013  76.9524 283.1801 14.80492874452357
SL-16 R/B               
1 25861U 99039B   26190.17944755  .00000312  00000+0  46185-4 0  9995
2 25861  97.9826 248.9786 0013881 218.8084 141.2133 14.81867008454855
DELTA 2 R/B             
1 25876U 99041E   26189.69296282  .00001200  00000+0  23116-3 0  9999
2 25876  51.7612 177.8781 0501235 345.5594  13.1446 14.12066017380123
HELIOS 1B               
1 25977U 99064A   26190.16731365  .00001013  00000+0  11658-3 0  9996
2 25977  98.1594  95.9417 0002188  61.3924 298.7512 14.88065492703323
TERRA                   
1 25994U 99068A   26190.27644859  .00000261  00000+0  62003-4 0  9997
2 25994  97.9444 238.9456 0003146 134.5499 298.5628 14.61120751412830
SL-16 R/B               
1 26070U 00006B   26190.03751632 -.00000238  00000+0 -96496-4 0  9998
2 26070  71.0003 202.6810 0016941 348.6607  11.4131 14.15839868365730
TITAN 4B R/B            
1 26474U 00047B   26190.24651190  .00001851  00000+0  11839-3 0  9999
2 26474  67.9873  58.4759 0045974 264.6565  94.9338 15.10315019411262
ENVISAT                 
1 27386U 02009A   26190.31164921  .00000044  00000+0  28197-4 0  9990
2 27386  98.3844 141.1379 0001361  84.3195  88.5345 14.39069929276663
IDEFIX & ARIANE 42P R/B 
1 27422U 02021B   26190.29324640  .00000128  00000+0  65340-4 0  9992
2 27422  98.5942 127.5372 0011522 183.7165 176.3934 14.31092144261411
AQUA                    
1 27424U 02022A   26190.30314461  .00000545  00000+0  11799-3 0  9998
2 27424  98.4290 160.0298 0000771 102.6219   4.1556 14.62191716286505
CZ-4B R/B               
1 27432U 02024C   26189.75341054  .00000003  00000+0  24386-4 0  9990
2 27432  98.8689 242.4323 0050791  40.1182  73.8783 14.14567672246355
MIDORI II (ADEOS-II)    
1 27597U 02056A   26189.90847185  .00000155  00000+0  78853-4 0  9996
2 27597  98.7890 149.3543 0001731  48.4654 311.6675 14.29360979227612
H-2A R/B                
1 27601U 02056E   26189.92532035  .00000152  00000+0  67521-4 0  9996
2 27601  98.3324 145.8088 0070502 159.4596 268.9584 14.33831655231483
CZ-4B R/B               
1 28059U 03049C   26189.96054132  .00000168  00000+0  50290-4 0  9990
2 28059  98.6905 189.6747 0047290 220.5516 139.2154 14.55113374204238
CZ-2C R/B               
1 28222U 04012C   26189.80327200  .00099446  00000+0  44522-3 0  9992
2 28222  97.7050 268.0571 0011127 210.2414 149.8213 15.83823781223316
SL-16 R/B               
1 28353U 04021B   26189.86987195  .00000229  00000+0  14369-3 0  9995
2 28353  71.0022 338.1826 0006476 230.4599 129.5952 14.14614688139976
CZ-4B R/B               
1 28415U 04035C   26190.03104525  .00004837  00000+0  16241-3 0  9998
2 28415  97.3363 222.8610 0028905 255.7029 104.1002 15.30934909198467
CZ-2C R/B               
1 28480U 04046B   26190.20827633  .00000058  00000+0  36569-4 0  9990
2 28480  98.1926  97.6108 0139791 155.0214 205.7818 14.27031973125835
ARIANE 5 R/B            
1 28499U 04049H   26189.75258899  .00000387  00000+0  49396-4 0  9990
2 28499  98.2737   2.8409 0082959 319.4310  40.0739 14.85474250163763
CZ-2D R/B               
1 28738U 05024B   26189.62441742  .00050849  00000+0  38743-3 0  9998
2 28738  97.3477 210.1597 0001260 219.5546 140.5626 15.72109039158705
ALOS (DAICHI)           
1 28931U 06002A   26189.87123325  .00000727  00000+0  12919-3 0  9998
2 28931  98.1334 145.3726 0000782  81.1093 279.0202 14.70093988 91281
